SKYSAT-A                
1 39418U 13066C   26193.65279623  .00001555  00000+0  91024-4 0  9997
2 39418  97.3804 242.2385 0020250 222.7187 137.2471 15.13106553692330
SKYSAT-B                
1 40072U 14037D   26193.87895628  .00000641  00000+0  76424-4 0  9999
2 40072  98.3853 154.3116 0005393 179.8697 180.2520 14.88088942649783
SKYSAT-C1               
1 41601U 16040C   26192.63835800  .00005514  00000+0  15589-3 0  9991
2 41601  96.9557 223.0369 0000645 355.4804   4.6435 15.36708815561620
SKYSAT-C4               
1 41771U 16058B   26193.59115844  .00011647  00000+0  21392-3 0  9996
2 41771  96.9166 214.3113 0003375 121.6663 238.4919 15.49378795549403
SKYSAT-C5               
1 41772U 16058C   26193.66676795  .00004512  00000+0  14077-3 0  9997
2 41772  97.0459 233.1668 0002262 167.5326 192.5974 15.33697335547657
SKYSAT-C2               
1 41773U 16058D   26193.56193375  .00007920  00000+0  18376-3 0  9997
2 41773  97.0160 214.7089 0001849   5.3443 354.7825 15.42640053548965
SKYSAT-C3               
1 41774U 16058E   26193.65796786  .00015667  00000+0  24693-3 0  9999
2 41774  96.8992 223.5415 0002414 136.6705 223.4740 15.53626037550065
SKYSAT-C11              
1 42987U 17068A   26193.41806616  .00017889  00000+0  22940-3 0  9997
2 42987  97.4366 343.3758 0000965 162.5128 197.6162 15.59216138487175
SKYSAT-C10              
1 42988U 17068B   26193.84868530  .00007505  00000+0  22282-3 0  9991
2 42988  97.4529 330.9574 0001409 109.4915 250.6480 15.35088238486290
SKYSAT-C9               
1 42989U 17068C   26193.61422522  .00008845  00000+0  20809-3 0  9995
2 42989  97.4448 331.9015 0008857  53.0107 307.1949 15.42174934486670
SKYSAT-C8               
1 42990U 17068D   26193.84568308  .00007184  00000+0  19785-3 0  9991
2 42990  97.4548 330.8531 0001224 101.8680 258.2702 15.37463335486250
SKYSAT-C7               
1 42991U 17068E   26193.18922727  .00006063  00000+0  16760-3 0  9993
2 42991  97.4554 331.1783 0005961  31.4631 328.6968 15.37404124486210
SKYSAT-C6               
1 42992U 17068F   26193.84493934  .00006059  00000+0  18576-3 0  9992
2 42992  97.4595 331.7075 0005134  94.9453 265.2376 15.34145523486259
SKYSAT-C12              
1 43797U 18099AR  26193.86489181  .00013766  00000+0  24927-3 0  9992
2 43797  96.9255 216.0812 0005503  75.3427 284.8435 15.49735148425832
